CTC1_L_00101016-03
1 10062U 24818HO  26075.70030093  .00000000  00000+0  00000-0 0  9993
2 10062  80.0000 180.0000 0000000   0.0000   0.0000 14.42576008    16
CTC1_L_00101016-04
1 10063U 23736BU  26075.70030093  .00000000  00000+0  00000-0 0  9992
2 10063  80.0000 180.0000 0000000   0.0000  90.0000 14.42576008    16
CTC1_L_00101017-01
1 10064U 24939YY  26075.70030093  .00000000  00000+0  00000-0 0  9999
2 10064  80.0000 192.0000 0000000   0.0000 192.0000 14.42576008    13
CTC1_L_00101017-02
1 10065U 22895BK  26075.70030093  .00000000  00000+0  00000-0 0  9999
2 10065  80.0000 192.0000 0000000   0.0000 282.0000 14.42576008    14
CTC1_L_00101017-03
1 10066U 23799KO  26075.70030093  .00000000  00000+0  00000-0 0  9994
2 10066  80.0000 192.0000 0000000   0.0000  12.0000 14.42576008    16
CTC1_L_00101017-04
1 10067U 22183CH  26075.70030093  .00000000  00000+0  00000-0 0  9991
2 10067  80.0000 192.0000 0000000   0.0000 102.0000 14.42576008    17
CTC1_L_00101018-01
1 10068U 24487CF  26075.70030093  .00000000  00000+0  00000-0 0  9991
2 10068  80.0000 204.0000 0000000   0.0000 204.0000 14.42576008    15
CTC1_L_00101018-02
1 10069U 24013HM  26075.70030093  .00000000  00000+0  00000-0 0  9997
2 10069  80.0000 204.0000 0000000   0.0000 294.0000 14.42576008    15
CTC1_L_00101018-03
1 10070U 26914JO  26075.70030093  .00000000  00000+0  00000-0 0  9991
2 10070  80.0000 204.0000 0000000   0.0000  24.0000 14.42576008    18
CTC1_L_00101018-04
1 10071U 25805SU  26075.70030093  .00000000  00000+0  00000-0 0  9990
2 10071  80.0000 204.0000 0000000   0.0000 114.0000 14.42576008    19
CTC1_L_00101019-01
1 10072U 22785TD  26075.70030093  .00000000  00000+0  00000-0 0  9995
2 10072  80.0000 216.0000 0000000   0.0000 216.0000 14.42576008    16
CTC1_L_00101019-02
1 10073U 23597HF  26075.70030093  .00000000  00000+0  00000-0 0  9998
2 10073  80.0000 216.0000 0000000   0.0000 306.0000 14.42576008    17
CTC1_L_00101019-03
1 10074U 26921NW  26075.70030093  .00000000  00000+0  00000-0 0  9993
2 10074  80.0000 216.0000 0000000   0.0000  36.0000 14.42576008    18
CTC1_L_00101019-04
1 10075U 22394WT  26075.70030093  .00000000  00000+0  00000-0 0  9994
2 10075  80.0000 216.0000 0000000   0.0000 126.0000 14.42576008    19
CTC1_L_00101020-01
1 10076U 22744ZX  26075.70030093  .00000000  00000+0  00000-0 0  9994
2 10076  80.0000 228.0000 0000000   0.0000 228.0000 14.42576008    16
CTC1_L_00101020-02
1 10077U 23196GM  26075.70030093  .00000000  00000+0  00000-0 0  9997
2 10077  80.0000 228.0000 0000000   0.0000 318.0000 14.42576008    17
CTC1_L_00101020-03
1 10078U 24600DR  26075.70030093  .00000000  00000+0  00000-0 0  9999
2 10078  80.0000 228.0000 0000000   0.0000  48.0000 14.42576008    18
CTC1_L_00101020-04
1 10079U 23269BX  26075.70030093  .00000000  00000+0  00000-0 0  9990
2 10079  80.0000 228.0000 0000000   0.0000 138.0000 14.42576008    19
CTC1_L_00101021-01
1 10080U 24091CZ  26075.70030093  .00000000  00000+0  00000-0 0  9996
2 10080  80.0000 240.0000 0000000   0.0000 240.0000 14.42576008    19
CTC1_L_00101021-02
1 10081U 22148EJ  26075.70030093  .00000000  00000+0  00000-0 0  9998
2 10081  80.0000 240.0000 0000000   0.0000 330.0000 14.42576008    10
CTC1_L_00101021-03
1 10082U 26873BO  26075.70030093  .00000000  00000+0  00000-0 0  9998
2 10082  80.0000 240.0000 0000000   0.0000  60.0000 14.42576008    11
CTC1_L_00101021-04
1 10083U 24020WC  26075.70030093  .00000000  00000+0  00000-0 0  9991
2 10083  80.0000 240.0000 0000000   0.0000 150.0000 14.42576008    12
CTC1_L_00101022-01
1 10084U 24716LL  26075.70030093  .00000000  00000+0  00000-0 0  9994
2 10084  80.0000 252.0000 0000000   0.0000 252.0000 14.42576008    19
CTC1_L_00101022-02
1 10085U 25878QC  26075.70030093  .00000000  00000+0  00000-0 0  9995
2 10085  80.0000 252.0000 0000000   0.0000 342.0000 14.42576008    10
CTC1_L_00101022-03
1 10086U 26684FX  26075.70030093  .00000000  00000+0  00000-0 0  9992
2 10086  80.0000 252.0000 0000000   0.0000  72.0000 14.42576008    11
CTC1_L_00101022-04
1 10087U 26597XR  26075.70030093  .00000000  00000+0  00000-0 0  9996
2 10087  80.0000 252.0000 0000000   0.0000 162.0000 14.42576008    12
CTC1_L_00101023-01
1 10088U 22217TW  26075.70030093  .00000000  00000+0  00000-0 0  9992
2 10088  80.0000 264.0000 0000000   0.0000 264.0000 14.42576008    19
CTC1_L_00101023-02
1 10089U 22880WF  26075.70030093  .00000000  00000+0  00000-0 0  9999
2 10089  80.0000 264.0000 0000000   0.0000 354.0000 14.42576008    10
CTC1_L_00101023-03
1 10090U 22442GB  26075.70030093  .00000000  00000+0  00000-0 0  9995
2 10090  80.0000 264.0000 0000000   0.0000  84.0000 14.42576008    12
CTC1_L_00101023-04
1 10091U 25352QU  26075.70030093  .00000000  00000+0  00000-0 0  9999
2 10091  80.0000 264.0000 0000000   0.0000 174.0000 14.42576008    13
CTC1_L_00101024-01
1 10092U 24729FD  26075.70030093  .00000000  00000+0  00000-0 0  9997
2 10092  80.0000 276.0000 0000000   0.0000 276.0000 14.42576008    10
CTC1_L_00101024-02
1 10093U 25168ES  26075.70030093  .00000000  00000+0  00000-0 0  9996
2 10093  80.0000 276.0000 0000000   0.0000   6.0000 14.42576008    12
CTC1_L_00101024-03
1 10094U 24283OH  26075.70030093  .00000000  00000+0  00000-0 0  9994
2 10094  80.0000 276.0000 0000000   0.0000  96.0000 14.42576008    12
CTC1_L_00101024-04
1 10095U 22683GS  26075.70030093  .00000000  00000+0  00000-0 0  9997
2 10095  80.0000 276.0000 0000000   0.0000 186.0000 14.42576008    13
CTC1_L_00101025-01
1 10096U 26443FS  26075.70030093  .00000000  00000+0  00000-0 0  9996
2 10096  80.0000 288.0000 0000000   0.0000 288.0000 14.42576008    10
CTC1_L_00101025-02
1 10097U 25196TV  26075.70030093  .00000000  00000+0  00000-0 0  9991
2 10097  80.0000 288.0000 0000000   0.0000  18.0000 14.42576008    12
CTC1_L_00101025-03
1 10098U 24155LR  26075.70030093  .00000000  00000+0  00000-0 0  9996
2 10098  80.0000 288.0000 0000000   0.0000 108.0000 14.42576008    13
CTC1_L_00101025-04
1 10099U 22229JW  26075.70030093  .00000000  00000+0  00000-0 0  9997
2 10099  80.0000 288.0000 0000000   0.0000 198.0000 14.42576008    13
CTC1_L_00101026-01
1 10100U 26730CA  26075.70030093  .00000000  00000+0  00000-0 0  9991
2 10100  80.0000 300.0000 0000000   0.0000 300.0000 14.42576008    16
CTC1_L_00101026-02
1 10101U 22148LR  26075.70030093  .00000000  00000+0  00000-0 0  9991
2 10101  80.0000 300.0000 0000000   0.0000  30.0000 14.42576008    17
CTC1_L_00101026-03
1 10102U 25359ZN  26075.70030093  .00000000  00000+0  00000-0 0  9999
2 10102  80.0000 300.0000 0000000   0.0000 120.0000 14.42576008    18
CTC1_L_00101026-04
1 10103U 25589GN  26075.70030093  .00000000  00000+0  00000-0 0  9995
2 10103  80.0000 300.0000 0000000   0.0000 210.0000 14.42576008    19
CTC1_L_00101027-01
1 10104U 22597TN  26075.70030093  .00000000  00000+0  00000-0 0  9992
2 10104  80.0000 312.0000 0000000   0.0000 312.0000 14.42576008    16
CTC1_L_00101027-02
1 10105U 25010IS  26075.70030093  .00000000  00000+0  00000-0 0  9996
2 10105  80.0000 312.0000 0000000   0.0000  42.0000 14.42576008    17
CTC1_L_00101027-03
1 10106U 25009PM  26075.70030093  .00000000  00000+0  00000-0 0  9995
2 10106  80.0000 312.0000 0000000   0.0000 132.0000 14.42576008    18
CTC1_L_00101027-04
1 10107U 25463YA  26075.70030093  .00000000  00000+0  00000-0 0  9990
2 10107  80.0000 312.0000 0000000   0.0000 222.0000 14.42576008    19
CTC1_L_00101028-01
1 10108U 26824SO  26075.70030093  .00000000  00000+0  00000-0 0  9993
2 10108  80.0000 324.0000 0000000   0.0000 324.0000 14.42576008    16
CTC1_L_00101028-02
1 10109U 23440DC  26075.70030093  .00000000  00000+0  00000-0 0  9995
2 10109  80.0000 324.0000 0000000   0.0000  54.0000 14.42576008    17
CTC1_L_00101028-03
1 10110U 22114XP  26075.70030093  .00000000  00000+0  00000-0 0  9994
2 10110  80.0000 324.0000 0000000   0.0000 144.0000 14.42576008    19
CTC1_L_00101028-04
1 10111U 25229WE  26075.70030093  .00000000  00000+0  00000-0 0  9995
2 10111  80.0000 324.0000 0000000   0.0000 234.0000 14.42576008    10
CTC1_L_00101029-01
1 10112U 26367L   26075.70030093  .00000000  00000+0  00000-0 0  9990
2 10112  80.0000 336.0000 0000000   0.0000 336.0000 14.42576008    17
CTC1_L_00101029-02
1 10113U 24200NQ  26075.70030093  .00000000  00000+0  00000-0 0  9995
2 10113  80.0000 336.0000 0000000   0.0000  66.0000 14.42576008    18
CTC1_L_00101029-03
1 10114U 23740PA  26075.70030093  .00000000  00000+0  00000-0 0  9994
2 10114  80.0000 336.0000 0000000   0.0000 156.0000 14.42576008    19
CTC1_L_00101029-04
1 10115U 25995QL  26075.70030093  .00000000  00000+0  00000-0 0  9999
2 10115  80.0000 336.0000 0000000   0.0000 246.0000 14.42576008    10
CTC1_L_00101030-01
1 10116U 22140AK  26075.70030093  .00000000  00000+0  00000-0 0  9999
2 10116  80.0000 348.0000 0000000   0.0000 348.0000 14.42576008    17
CTC1_L_00101030-02
1 10117U 23802ZX  26075.70030093  .00000000  00000+0  00000-0 0  9996
2 10117  80.0000 348.0000 0000000   0.0000  78.0000 14.42576008    18
CTC1_L_00101030-03
1 10118U 24688FI  26075.70030093  .00000000  00000+0  00000-0 0  9990
2 10118  80.0000 348.0000 0000000   0.0000 168.0000 14.42576008    19
CTC1_L_00101030-04
1 10119U 26884PW  26075.70030093  .00000000  00000+0  00000-0 0  9991
2 10119  80.0000 348.0000 0000000   0.0000 258.0000 14.42576008    10
